CCSDS_OMM_VERS = 2.0
CREATION_DATE  = 
ORIGINATOR     = 

OBJECT_NAME    = STARLINK-36110
OBJECT_ID      = 2025-286W
CENTER_NAME    = EARTH
REF_FRAME      = TEME
TIME_SYSTEM    = UTC
MEAN_ELEMENT_THEORY = SGP/SGP4

EPOCH          = 2026-01-05T04:00:03.000096
MEAN_MOTION    = 15.39598590
ECCENTRICITY   = .0001138
INCLINATION    = 53.1601
RA_OF_ASC_NODE = 295.8452
ARG_OF_PERICENTER = 85.5903
MEAN_ANOMALY   = 75.7631

EPHEMERIS_TYPE = 0
CLASSIFICATION_TYPE = U
NORAD_CAT_ID   = 66945
ELEMENT_SET_NO = 999
REV_AT_EPOCH   = 575
BSTAR          = .21066E-2
MEAN_MOTION_DOT = .84743E-3
MEAN_MOTION_DDOT = 0

CCSDS_OMM_VERS = 2.0
CREATION_DATE  = 
ORIGINATOR     = 

OBJECT_NAME    = STARLINK-36115
OBJECT_ID      = 2025-286X
CENTER_NAME    = EARTH
REF_FRAME      = TEME
TIME_SYSTEM    = UTC
MEAN_ELEMENT_THEORY = SGP/SGP4

EPOCH          = 2026-01-05T04:00:03.000096
MEAN_MOTION    = 15.39557798
ECCENTRICITY   = .0001086
INCLINATION    = 53.1600
RA_OF_ASC_NODE = 295.7440
ARG_OF_PERICENTER = 87.0956
MEAN_ANOMALY   = 125.8171

EPHEMERIS_TYPE = 0
CLASSIFICATION_TYPE = U
NORAD_CAT_ID   = 66946
ELEMENT_SET_NO = 999
REV_AT_EPOCH   = 575
BSTAR          = .17594E-2
MEAN_MOTION_DOT = .70485E-3
MEAN_MOTION_DDOT = 0

CCSDS_OMM_VERS = 2.0
CREATION_DATE  = 
ORIGINATOR     = 

OBJECT_NAME    = STARLINK-36089
OBJECT_ID      = 2025-286Y
CENTER_NAME    = EARTH
REF_FRAME      = TEME
TIME_SYSTEM    = UTC
MEAN_ELEMENT_THEORY = SGP/SGP4

EPOCH          = 2026-01-05T04:26:17.901888
MEAN_MOTION    = 15.48847345
ECCENTRICITY   = .0003131
INCLINATION    = 53.1593
RA_OF_ASC_NODE = 295.5637
ARG_OF_PERICENTER = 60.9126
MEAN_ANOMALY   = 299.2196

EPHEMERIS_TYPE = 0
CLASSIFICATION_TYPE = U
NORAD_CAT_ID   = 66947
ELEMENT_SET_NO = 999
REV_AT_EPOCH   = 566
BSTAR          = -.1784E-2
MEAN_MOTION_DOT = -.96892E-3
MEAN_MOTION_DDOT = 0

CCSDS_OMM_VERS = 2.0
CREATION_DATE  = 
ORIGINATOR     = 

OBJECT_NAME    = STARLINK-36116
OBJECT_ID      = 2025-286Z
CENTER_NAME    = EARTH
REF_FRAME      = TEME
TIME_SYSTEM    = UTC
MEAN_ELEMENT_THEORY = SGP/SGP4

EPOCH          = 2026-01-05T04:00:03.000096
MEAN_MOTION    = 15.42339240
ECCENTRICITY   = .0001223
INCLINATION    = 53.1597
RA_OF_ASC_NODE = 295.6977
ARG_OF_PERICENTER = 100.0843
MEAN_ANOMALY   = 136.0396

EPHEMERIS_TYPE = 0
CLASSIFICATION_TYPE = U
NORAD_CAT_ID   = 66948
ELEMENT_SET_NO = 999
REV_AT_EPOCH   = 575
BSTAR          = -.60701E-1
MEAN_MOTION_DOT = -.2366825E-1
MEAN_MOTION_DDOT = 0

CCSDS_OMM_VERS = 2.0
CREATION_DATE  = 
ORIGINATOR     = 

OBJECT_NAME    = STARLINK-36096
OBJECT_ID      = 2025-286AA
CENTER_NAME    = EARTH
REF_FRAME      = TEME
TIME_SYSTEM    = UTC
MEAN_ELEMENT_THEORY = SGP/SGP4

EPOCH          = 2026-01-05T00:00:00.999648
MEAN_MOTION    = 15.39618218
ECCENTRICITY   = .0001355
INCLINATION    = 53.1591
RA_OF_ASC_NODE = 296.7327
ARG_OF_PERICENTER = 83.9278
MEAN_ANOMALY   = 181.4685

EPHEMERIS_TYPE = 0
CLASSIFICATION_TYPE = U
NORAD_CAT_ID   = 66949
ELEMENT_SET_NO = 999
REV_AT_EPOCH   = 572
BSTAR          = .37354E-3
MEAN_MOTION_DOT = .14569E-3
MEAN_MOTION_DDOT = 0

CCSDS_OMM_VERS = 2.0
CREATION_DATE  = 
ORIGINATOR     = 

OBJECT_NAME    = STARLINK-36111
OBJECT_ID      = 2025-286AB
CENTER_NAME    = EARTH
REF_FRAME      = TEME
TIME_SYSTEM    = UTC
MEAN_ELEMENT_THEORY = SGP/SGP4

EPOCH          = 2026-01-04T08:00:03.000384
MEAN_MOTION    = 15.49314390
ECCENTRICITY   = .00013886
INCLINATION    = 53.1591
RA_OF_ASC_NODE = 299.6237
ARG_OF_PERICENTER = 78.5962
MEAN_ANOMALY   = 215.4029

EPHEMERIS_TYPE = 0
CLASSIFICATION_TYPE = U
NORAD_CAT_ID   = 66950
ELEMENT_SET_NO = 999
REV_AT_EPOCH   = 562
BSTAR          = -.56502626E-3
MEAN_MOTION_DOT = -.31752E-3
MEAN_MOTION_DDOT = 0

CCSDS_OMM_VERS = 2.0
CREATION_DATE  = 
ORIGINATOR     = 

OBJECT_NAME    = STARLINK-35999
OBJECT_ID      = 2025-286AC
CENTER_NAME    = EARTH
REF_FRAME      = TEME
TIME_SYSTEM    = UTC
MEAN_ELEMENT_THEORY = SGP/SGP4

EPOCH          = 2026-01-05T01:18:25.681824
MEAN_MOTION    = 15.49344051
ECCENTRICITY   = .0000988
INCLINATION    = 53.1598
RA_OF_ASC_NODE = 296.1716
ARG_OF_PERICENTER = 106.3286
MEAN_ANOMALY   = 253.7832

EPHEMERIS_TYPE = 0
CLASSIFICATION_TYPE = U
NORAD_CAT_ID   = 66951
ELEMENT_SET_NO = 999
REV_AT_EPOCH   = 564
BSTAR          = .12994E-2
MEAN_MOTION_DOT = .72582E-3
MEAN_MOTION_DDOT = 0

CCSDS_OMM_VERS = 2.0
CREATION_DATE  = 
ORIGINATOR     = 

OBJECT_NAME    = STARLINK-36122
OBJECT_ID      = 2025-286AD
CENTER_NAME    = EARTH
REF_FRAME      = TEME
TIME_SYSTEM    = UTC
MEAN_ELEMENT_THEORY = SGP/SGP4

EPOCH          = 2026-01-05T04:00:03.000096
MEAN_MOTION    = 15.44694368
ECCENTRICITY   = .0001561
INCLINATION    = 53.1591
RA_OF_ASC_NODE = 295.6608
ARG_OF_PERICENTER = 99.1305
MEAN_ANOMALY   = 155.0150

EPHEMERIS_TYPE = 0
CLASSIFICATION_TYPE = U
NORAD_CAT_ID   = 66952
ELEMENT_SET_NO = 999
REV_AT_EPOCH   = 575
BSTAR          = -.48852E-1
MEAN_MOTION_DOT = -.2058482E-1
MEAN_MOTION_DDOT = 0

CCSDS_OMM_VERS = 2.0
CREATION_DATE  = 
ORIGINATOR     = 

OBJECT_NAME    = HULIANWANG DIGUI-114
OBJECT_ID      = 2025-287A
CENTER_NAME    = EARTH
REF_FRAME      = TEME
TIME_SYSTEM    = UTC
MEAN_ELEMENT_THEORY = SGP/SGP4

EPOCH          = 2026-01-04T16:06:57.062592
MEAN_MOTION    = 13.54524820
ECCENTRICITY   = .00018287
INCLINATION    = 86.5074
RA_OF_ASC_NODE = 337.8507
ARG_OF_PERICENTER = 80.1895
MEAN_ANOMALY   = 279.9463

EPHEMERIS_TYPE = 0
CLASSIFICATION_TYPE = U
NORAD_CAT_ID   = 66953
ELEMENT_SET_NO = 999
REV_AT_EPOCH   = 365
BSTAR          = -.495324E-5
MEAN_MOTION_DOT = .13E-6
MEAN_MOTION_DDOT = 0

CCSDS_OMM_VERS = 2.0
CREATION_DATE  = 
ORIGINATOR     = 

OBJECT_NAME    = HULIANWANG DIGUI-115
OBJECT_ID      = 2025-287B
CENTER_NAME    = EARTH
REF_FRAME      = TEME
TIME_SYSTEM    = UTC
MEAN_ELEMENT_THEORY = SGP/SGP4

EPOCH          = 2026-01-04T08:55:35.836320
MEAN_MOTION    = 13.54779036
ECCENTRICITY   = .00016484
INCLINATION    = 86.4952
RA_OF_ASC_NODE = 337.9680
ARG_OF_PERICENTER = 70.0444
MEAN_ANOMALY   = 290.0885

EPHEMERIS_TYPE = 0
CLASSIFICATION_TYPE = U
NORAD_CAT_ID   = 66954
ELEMENT_SET_NO = 999
REV_AT_EPOCH   = 361
BSTAR          = -.5045239E-5
MEAN_MOTION_DOT = .12E-6
MEAN_MOTION_DDOT = 0

CCSDS_OMM_VERS = 2.0
CREATION_DATE  = 
ORIGINATOR     = 

OBJECT_NAME    = HULIANWANG DIGUI-116
OBJECT_ID      = 2025-287C
CENTER_NAME    = EARTH
REF_FRAME      = TEME
TIME_SYSTEM    = UTC
MEAN_ELEMENT_THEORY = SGP/SGP4

EPOCH          = 2026-01-04T08:48:57.749184
MEAN_MOTION    = 13.54758532
ECCENTRICITY   = .00078152
INCLINATION    = 86.4941
RA_OF_ASC_NODE = 337.9296
ARG_OF_PERICENTER = 77.8224
MEAN_ANOMALY   = 282.3803

EPHEMERIS_TYPE = 0
CLASSIFICATION_TYPE = U
NORAD_CAT_ID   = 66955
ELEMENT_SET_NO = 999
REV_AT_EPOCH   = 361
BSTAR          = .2117443E-3
MEAN_MOTION_DOT = .161E-5
MEAN_MOTION_DDOT = 0

CCSDS_OMM_VERS = 2.0
CREATION_DATE  = 
ORIGINATOR     = 

OBJECT_NAME    = HULIANWANG DIGUI-117
OBJECT_ID      = 2025-287D
CENTER_NAME    = EARTH
REF_FRAME      = TEME
TIME_SYSTEM    = UTC
MEAN_ELEMENT_THEORY = SGP/SGP4

EPOCH          = 2026-01-04T15:48:06.723360
MEAN_MOTION    = 13.54919725
ECCENTRICITY   = .00015467
INCLINATION    = 86.4949
RA_OF_ASC_NODE = 337.8692
ARG_OF_PERICENTER = 128.3263
MEAN_ANOMALY   = 231.8028

EPHEMERIS_TYPE = 0
CLASSIFICATION_TYPE = U
NORAD_CAT_ID   = 66956
ELEMENT_SET_NO = 999
REV_AT_EPOCH   = 365
BSTAR          = .71719E-6
MEAN_MOTION_DOT = .16E-6
MEAN_MOTION_DDOT = 0

CCSDS_OMM_VERS = 2.0
CREATION_DATE  = 
ORIGINATOR     = 

OBJECT_NAME    = HULIANWANG DIGUI-118
OBJECT_ID      = 2025-287E
CENTER_NAME    = EARTH
REF_FRAME      = TEME
TIME_SYSTEM    = UTC
MEAN_ELEMENT_THEORY = SGP/SGP4

EPOCH          = 2026-01-04T15:41:52.736640
MEAN_MOTION    = 13.55071426
ECCENTRICITY   = .00014037
INCLINATION    = 86.4980
RA_OF_ASC_NODE = 337.8547
ARG_OF_PERICENTER = 144.7624
MEAN_ANOMALY   = 215.3620

EPHEMERIS_TYPE = 0
CLASSIFICATION_TYPE = U
NORAD_CAT_ID   = 66957
ELEMENT_SET_NO = 999
REV_AT_EPOCH   = 365
BSTAR          = .21400996E-3
MEAN_MOTION_DOT = .163E-5
MEAN_MOTION_DDOT = 0

CCSDS_OMM_VERS = 2.0
CREATION_DATE  = 
ORIGINATOR     = 

OBJECT_NAME    = CZ-6A R/B
OBJECT_ID      = 2025-287F
CENTER_NAME    = EARTH
REF_FRAME      = TEME
TIME_SYSTEM    = UTC
MEAN_ELEMENT_THEORY = SGP/SGP4

EPOCH          = 2026-01-04T22:39:33.240672
MEAN_MOTION    = 13.94924182
ECCENTRICITY   = .0106394
INCLINATION    = 86.5075
RA_OF_ASC_NODE = 337.2801
ARG_OF_PERICENTER = 32.2680
MEAN_ANOMALY   = 328.4943

EPHEMERIS_TYPE = 0
CLASSIFICATION_TYPE = U
NORAD_CAT_ID   = 66958
ELEMENT_SET_NO = 999
REV_AT_EPOCH   = 377
BSTAR          = .84187858E-4
MEAN_MOTION_DOT = .137E-5
MEAN_MOTION_DDOT = 0

CCSDS_OMM_VERS = 2.0
CREATION_DATE  = 
ORIGINATOR     = 

OBJECT_NAME    = STARLINK-35887
OBJECT_ID      = 2025-288A
CENTER_NAME    = EARTH
REF_FRAME      = TEME
TIME_SYSTEM    = UTC
MEAN_ELEMENT_THEORY = SGP/SGP4

EPOCH          = 2026-01-05T02:30:48.080160
MEAN_MOTION    = 15.40719015
ECCENTRICITY   = .0001546
INCLINATION    = 43.0012
RA_OF_ASC_NODE = 27.6869
ARG_OF_PERICENTER = 269.3120
MEAN_ANOMALY   = 90.7559

EPHEMERIS_TYPE = 0
CLASSIFICATION_TYPE = U
NORAD_CAT_ID   = 66959
ELEMENT_SET_NO = 999
REV_AT_EPOCH   = 550
BSTAR          = .1668E-2
MEAN_MOTION_DOT = .70058E-3
MEAN_MOTION_DDOT = 0

